{
  "type": "FeatureCollection",
  "features": [
    {
      "type": "Feature",
      "geometry": {
        "type": "Point",
        "coordinates": [
          -86.7971,
          33.5279
        ]
      },
      "properties": {
        "city": "Birmingham, AL",
        "state": "Alabama"
      }
    },
    {
      "type": "Feature",
      "geometry": {
        "type": "Point",
        "coordinates": [
          -85.407,
          31.2336
        ]
      },
      "properties": {
        "city": "Dothan, AL",
        "state": "Alabama"
      }
    },
    {
      "type": "Feature",
      "geometry": {
        "type": "Point",
        "coordinates": [
          -86.6412,
          34.6981
        ]
      },
      "properties": {
        "city": "Huntsville, AL",
        "state": "Alabama"
      }
    },
    {
      "type": "Feature",
      "geometry": {
        "type": "Point",
        "coordinates": [
          -88.1162,
          30.6782
        ]
      },
      "properties": {
        "city": "Mobile, AL",
        "state": "Alabama"
      }
    },
    {
      "type": "Feature",
      "geometry": {
        "type": "Point",
        "coordinates": [
          -86.2668,
          32.3482
        ]
      },
      "properties": {
        "city": "Montgomery, AL",
        "state": "Alabama"
      }
    },
    {
      "type": "Feature",
      "geometry": {
        "type": "Point",
        "coordinates": [
          -149.1091,
          61.1508
        ]
      },
      "properties": {
        "city": "Anchorage, AK",
        "state": "Alaska"
      }
    },
    {
      "type": "Feature",
      "geometry": {
        "type": "Point",
        "coordinates": [
          -161.7917,
          60.7928
        ]
      },
      "properties": {
        "city": "Bethel, AK",
        "state": "Alaska"
      }
    },
    {
      "type": "Feature",
      "geometry": {
        "type": "Point",
        "coordinates": [
          -145.6087,
          60.5347
        ]
      },
      "properties": {
        "city": "Cordova, AK",
        "state": "Alaska"
      }
    },
    {
      "type": "Feature",
      "geometry": {
        "type": "Point",
        "coordinates": [
          -158.5378,
          59.055
        ]
      },
      "properties": {
        "city": "Dillingham, AK",
        "state": "Alaska"
      }
    },
    {
      "type": "Feature",
      "geometry": {
        "type": "Point",
        "coordinates": [
          -147.6533,
          64.8353
        ]
      },
      "properties": {
        "city": "Fairbanks, AK",
        "state": "Alaska"
      }
    },
    {
      "type": "Feature",
      "geometry": {
        "type": "Point",
        "coordinates": [
          -135.7492,
          58.4275
        ]
      },
      "properties": {
        "city": "Gustavus, AK",
        "state": "Alaska"
      }
    },
    {
      "type": "Feature",
      "geometry": {
        "type": "Point",
        "coordinates": [
          -134.1739,
          58.4546
        ]
      },
      "properties": {
        "city": "Juneau, AK",
        "state": "Alaska"
      }
    },
    {
      "type": "Feature",
      "geometry": {
        "type": "Point",
        "coordinates": [
          -131.6698,
          55.3556
        ]
      },
      "properties": {
        "city": "Ketchikan, AK",
        "state": "Alaska"
      }
    },
    {
      "type": "Feature",
      "geometry": {
        "type": "Point",
        "coordinates": [
          -156.5061,
          58.753
        ]
      },
      "properties": {
        "city": "King Salmon, AK",
        "state": "Alaska"
      }
    },
    {
      "type": "Feature",
      "geometry": {
        "type": "Point",
        "coordinates": [
          -152.4059,
          57.7934
        ]
      },
      "properties": {
        "city": "Kodiak, AK",
        "state": "Alaska"
      }
    },
    {
      "type": "Feature",
      "geometry": {
        "type": "Point",
        "coordinates": [
          -162.5231,
          66.8766
        ]
      },
      "properties": {
        "city": "Kotzebue, AK",
        "state": "Alaska"
      }
    },
    {
      "type": "Feature",
      "geometry": {
        "type": "Point",
        "coordinates": [
          -165.4053,
          64.5213
        ]
      },
      "properties": {
        "city": "Nome, AK",
        "state": "Alaska"
      }
    },
    {
      "type": "Feature",
      "geometry": {
        "type": "Point",
        "coordinates": [
          -132.8727,
          56.7566
        ]
      },
      "properties": {
        "city": "Petersburg, AK",
        "state": "Alaska"
      }
    },
    {
      "type": "Feature",
      "geometry": {
        "type": "Point",
        "coordinates": [
          -135.3152,
          57.2401
        ]
      },
      "properties": {
        "city": "Sitka, AK",
        "state": "Alaska"
      }
    },
    {
      "type": "Feature",
      "geometry": {
        "type": "Point",
        "coordinates": [
          -132.0223,
          56.3317
        ]
      },
      "properties": {
        "city": "Wrangell, AK",
        "state": "Alaska"
      }
    },
    {
      "type": "Feature",
      "geometry": {
        "type": "Point",
        "coordinates": [
          -139.5966,
          59.567
        ]
      },
      "properties": {
        "city": "Yakutat, AK",
        "state": "Alaska"
      }
    },
    {
      "type": "Feature",
      "geometry": {
        "type": "Point",
        "coordinates": [
          -111.6194,
          35.1872
        ]
      },
      "properties": {
        "city": "Flagstaff, AZ",
        "state": "Arizona"
      }
    },
    {
      "type": "Feature",
      "geometry": {
        "type": "Point",
        "coordinates": [
          -112.0892,
          33.5722
        ]
      },
      "properties": {
        "city": "Phoenix, AZ",
        "state": "Arizona"
      }
    },
    {
      "type": "Feature",
      "geometry": {
        "type": "Point",
        "coordinates": [
          -112.4473,
          34.5849
        ]
      },
      "properties": {
        "city": "Prescott, AZ",
        "state": "Arizona"
      }
    },
    {
      "type": "Feature",
      "geometry": {
        "type": "Point",
        "coordinates": [
          -110.8787,
          32.1541
        ]
      },
      "properties": {
        "city": "Tucson, AZ",
        "state": "Arizona"
      }
    },
    {
      "type": "Feature",
      "geometry": {
        "type": "Point",
        "coordinates": [
          -114.5491,
          32.5995
        ]
      },
      "properties": {
        "city": "Yuma, AZ",
        "state": "Arizona"
      }
    },
    {
      "type": "Feature",
      "geometry": {
        "type": "Point",
        "coordinates": [
          -94.1661,
          36.0714
        ]
      },
      "properties": {
        "city": "Fayetteville, AR",
        "state": "Arkansas"
      }
    },
    {
      "type": "Feature",
      "geometry": {
        "type": "Point",
        "coordinates": [
          -94.3695,
          35.3495
        ]
      },
      "properties": {
        "city": "Fort Smith, AR",
        "state": "Arkansas"
      }
    },
    {
      "type": "Feature",
      "geometry": {
        "type": "Point",
        "coordinates": [
          -92.3577,
          34.7256
        ]
      },
      "properties": {
        "city": "Little Rock, AR",
        "state": "Arkansas"
      }
    },
    {
      "type": "Feature",
      "geometry": {
        "type": "Point",
        "coordinates": [
          -93.9959,
          33.436
        ]
      },
      "properties": {
        "city": "Texarkana, AR",
        "state": "Arkansas"
      }
    },
    {
      "type": "Feature",
      "geometry": {
        "type": "Point",
        "coordinates": [
          -119.0359,
          35.3529
        ]
      },
      "properties": {
        "city": "Bakersfield, CA",
        "state": "California"
      }
    },
    {
      "type": "Feature",
      "geometry": {
        "type": "Point",
        "coordinates": [
          -118.3958,
          37.3665
        ]
      },
      "properties": {
        "city": "Bishop, CA",
        "state": "California"
      }
    },
    {
      "type": "Feature",
      "geometry": {
        "type": "Point",
        "coordinates": [
          -118.3235,
          34.1879
        ]
      },
      "properties": {
        "city": "Burbank, CA",
        "state": "California"
      }
    },
    {
      "type": "Feature",
      "geometry": {
        "type": "Point",
        "coordinates": [
          -119.7939,
          36.783
        ]
      },
      "properties": {
        "city": "Fresno, CA",
        "state": "California"
      }
    },
    {
      "type": "Feature",
      "geometry": {
        "type": "Point",
        "coordinates": [
          -118.167,
          33.7977
        ]
      },
      "properties": {
        "city": "Long Beach, CA",
        "state": "California"
      }
    },
    {
      "type": "Feature",
      "geometry": {
        "type": "Point",
        "coordinates": [
          -118.4068,
          34.1141
        ]
      },
      "properties": {
        "city": "Los Angeles, CA",
        "state": "California"
      }
    },
    {
      "type": "Feature",
      "geometry": {
        "type": "Point",
        "coordinates": [
          -121.8808,
          36.5919
        ]
      },
      "properties": {
        "city": "Monterey, CA",
        "state": "California"
      }
    },
    {
      "type": "Feature",
      "geometry": {
        "type": "Point",
        "coordinates": [
          -122.2166,
          37.7904
        ]
      },
      "properties": {
        "city": "Oakland, CA",
        "state": "California"
      }
    },
    {
      "type": "Feature",
      "geometry": {
        "type": "Point",
        "coordinates": [
          -117.6064,
          34.0393
        ]
      },
      "properties": {
        "city": "Ontario, CA",
        "state": "California"
      }
    },
    {
      "type": "Feature",
      "geometry": {
        "type": "Point",
        "coordinates": [
          -116.5382,
          33.8017
        ]
      },
      "properties": {
        "city": "Palm Springs, CA",
        "state": "California"
      }
    },
    {
      "type": "Feature",
      "geometry": {
        "type": "Point",
        "coordinates": [
          -122.365,
          40.5698
        ]
      },
      "properties": {
        "city": "Redding, CA",
        "state": "California"
      }
    },
    {
      "type": "Feature",
      "geometry": {
        "type": "Point",
        "coordinates": [
          -121.4685,
          38.5677
        ]
      },
      "properties": {
        "city": "Sacramento, CA",
        "state": "California"
      }
    },
    {
      "type": "Feature",
      "geometry": {
        "type": "Point",
        "coordinates": [
          -117.1222,
          32.8313
        ]
      },
      "properties": {
        "city": "San Diego, CA",
        "state": "California"
      }
    },
    {
      "type": "Feature",
      "geometry": {
        "type": "Point",
        "coordinates": [
          -122.4449,
          37.7558
        ]
      },
      "properties": {
        "city": "San Francisco, CA",
        "state": "California"
      }
    },
    {
      "type": "Feature",
      "geometry": {
        "type": "Point",
        "coordinates": [
          -121.848,
          37.3012
        ]
      },
      "properties": {
        "city": "San Jose, CA",
        "state": "California"
      }
    },
    {
      "type": "Feature",
      "geometry": {
        "type": "Point",
        "coordinates": [
          -120.669,
          35.2669
        ]
      },
      "properties": {
        "city": "San Luis Obispo, CA",
        "state": "California"
      }
    },
    {
      "type": "Feature",
      "geometry": {
        "type": "Point",
        "coordinates": [
          -117.8819,
          33.7367
        ]
      },
      "properties": {
        "city": "Santa Ana, CA",
        "state": "California"
      }
    },
    {
      "type": "Feature",
      "geometry": {
        "type": "Point",
        "coordinates": [
          -119.7202,
          34.4285
        ]
      },
      "properties": {
        "city": "Santa Barbara, CA",
        "state": "California"
      }
    },
    {
      "type": "Feature",
      "geometry": {
        "type": "Point",
        "coordinates": [
          -120.4431,
          34.9333
        ]
      },
      "properties": {
        "city": "Santa Maria, CA",
        "state": "California"
      }
    },
    {
      "type": "Feature",
      "geometry": {
        "type": "Point",
        "coordinates": [
          -122.7067,
          38.4458
        ]
      },
      "properties": {
        "city": "Santa Rosa, CA",
        "state": "California"
      }
    },
    {
      "type": "Feature",
      "geometry": {
        "type": "Point",
        "coordinates": [
          -121.3109,
          37.9765
        ]
      },
      "properties": {
        "city": "Stockton, CA",
        "state": "California"
      }
    },
    {
      "type": "Feature",
      "geometry": {
        "type": "Point",
        "coordinates": [
          -106.8369,
          39.1951
        ]
      },
      "properties": {
        "city": "Aspen, CO",
        "state": "Colorado"
      }
    },
    {
      "type": "Feature",
      "geometry": {
        "type": "Point",
        "coordinates": [
          -104.7605,
          38.8674
        ]
      },
      "properties": {
        "city": "Colorado Springs, CO",
        "state": "Colorado"
      }
    },
    {
      "type": "Feature",
      "geometry": {
        "type": "Point",
        "coordinates": [
          -104.8758,
          39.762
        ]
      },
      "properties": {
        "city": "Denver, CO",
        "state": "Colorado"
      }
    },
    {
      "type": "Feature",
      "geometry": {
        "type": "Point",
        "coordinates": [
          -107.8781,
          37.2659
        ]
      },
      "properties": {
        "city": "Durango, CO",
        "state": "Colorado"
      }
    },
    {
      "type": "Feature",
      "geometry": {
        "type": "Point",
        "coordinates": [
          -106.8125,
          39.6366
        ]
      },
      "properties": {
        "city": "Eagle, CO",
        "state": "Colorado"
      }
    },
    {
      "type": "Feature",
      "geometry": {
        "type": "Point",
        "coordinates": [
          -108.5673,
          39.0877
        ]
      },
      "properties": {
        "city": "Grand Junction, CO",
        "state": "Colorado"
      }
    },
    {
      "type": "Feature",
      "geometry": {
        "type": "Point",
        "coordinates": [
          -106.9246,
          38.548
        ]
      },
      "properties": {
        "city": "Gunnison, CO",
        "state": "Colorado"
      }
    },
    {
      "type": "Feature",
      "geometry": {
        "type": "Point",
        "coordinates": [
          -107.239,
          40.4851
        ]
      },
      "properties": {
        "city": "Hayden, CO",
        "state": "Colorado"
      }
    },
    {
      "type": "Feature",
      "geometry": {
        "type": "Point",
        "coordinates": [
          -72.6834,
          41.7661
        ]
      },
      "properties": {
        "city": "Hartford, CT",
        "state": "Connecticut"
      }
    },
    {
      "type": "Feature",
      "geometry": {
        "type": "Point",
        "coordinates": [
          -81.0982,
          29.1995
        ]
      },
      "properties": {
        "city": "Daytona Beach, FL",
        "state": "Florida"
      }
    },
    {
      "type": "Feature",
      "geometry": {
        "type": "Point",
        "coordinates": [
          -80.1464,
          26.1412
        ]
      },
      "properties": {
        "city": "Fort Lauderdale, FL",
        "state": "Florida"
      }
    },
    {
      "type": "Feature",
      "geometry": {
        "type": "Point",
        "coordinates": [
          -81.8302,
          26.6194
        ]
      },
      "properties": {
        "city": "Fort Myers, FL",
        "state": "Florida"
      }
    },
    {
      "type": "Feature",
      "geometry": {
        "type": "Point",
        "coordinates": [
          -82.3459,
          29.6804
        ]
      },
      "properties": {
        "city": "Gainesville, FL",
        "state": "Florida"
      }
    },
    {
      "type": "Feature",
      "geometry": {
        "type": "Point",
        "coordinates": [
          -81.6749,
          30.3322
        ]
      },
      "properties": {
        "city": "Jacksonville, FL",
        "state": "Florida"
      }
    },
    {
      "type": "Feature",
      "geometry": {
        "type": "Point",
        "coordinates": [
          -81.7775,
          24.5642
        ]
      },
      "properties": {
        "city": "Key West, FL",
        "state": "Florida"
      }
    },
    {
      "type": "Feature",
      "geometry": {
        "type": "Point",
        "coordinates": [
          -80.6627,
          28.1086
        ]
      },
      "properties": {
        "city": "Melbourne, FL",
        "state": "Florida"
      }
    },
    {
      "type": "Feature",
      "geometry": {
        "type": "Point",
        "coordinates": [
          -80.2101,
          25.784
        ]
      },
      "properties": {
        "city": "Miami, FL",
        "state": "Florida"
      }
    },
    {
      "type": "Feature",
      "geometry": {
        "type": "Point",
        "coordinates": [
          -81.337,
          28.4773
        ]
      },
      "properties": {
        "city": "Orlando, FL",
        "state": "Florida"
      }
    },
    {
      "type": "Feature",
      "geometry": {
        "type": "Point",
        "coordinates": [
          -85.6003,
          30.1995
        ]
      },
      "properties": {
        "city": "Panama City, FL",
        "state": "Florida"
      }
    },
    {
      "type": "Feature",
      "geometry": {
        "type": "Point",
        "coordinates": [
          -87.1911,
          30.4413
        ]
      },
      "properties": {
        "city": "Pensacola, FL",
        "state": "Florida"
      }
    },
    {
      "type": "Feature",
      "geometry": {
        "type": "Point",
        "coordinates": [
          -82.0513,
          26.8941
        ]
      },
      "properties": {
        "city": "Punta Gorda, FL",
        "state": "Florida"
      }
    },
    {
      "type": "Feature",
      "geometry": {
        "type": "Point",
        "coordinates": [
          -81.2757,
          28.7891
        ]
      },
      "properties": {
        "city": "Sanford, FL",
        "state": "Florida"
      }
    },
    {
      "type": "Feature",
      "geometry": {
        "type": "Point",
        "coordinates": [
          -82.6652,
          27.7931
        ]
      },
      "properties": {
        "city": "St. Petersburg, FL",
        "state": "Florida"
      }
    },
    {
      "type": "Feature",
      "geometry": {
        "type": "Point",
        "coordinates": [
          -84.2527,
          30.4551
        ]
      },
      "properties": {
        "city": "Tallahassee, FL",
        "state": "Florida"
      }
    },
    {
      "type": "Feature",
      "geometry": {
        "type": "Point",
        "coordinates": [
          -82.4447,
          27.9945
        ]
      },
      "properties": {
        "city": "Tampa, FL",
        "state": "Florida"
      }
    },
    {
      "type": "Feature",
      "geometry": {
        "type": "Point",
        "coordinates": [
          -86.5079,
          30.4926
        ]
      },
      "properties": {
        "city": "Valparaiso, FL",
        "state": "Florida"
      }
    },
    {
      "type": "Feature",
      "geometry": {
        "type": "Point",
        "coordinates": [
          -84.1762,
          31.5776
        ]
      },
      "properties": {
        "city": "Albany, GA",
        "state": "Georgia"
      }
    },
    {
      "type": "Feature",
      "geometry": {
        "type": "Point",
        "coordinates": [
          -84.422,
          33.7628
        ]
      },
      "properties": {
        "city": "Atlanta, GA",
        "state": "Georgia"
      }
    },
    {
      "type": "Feature",
      "geometry": {
        "type": "Point",
        "coordinates": [
          -82.0708,
          33.3645
        ]
      },
      "properties": {
        "city": "Augusta, GA",
        "state": "Georgia"
      }
    },
    {
      "type": "Feature",
      "geometry": {
        "type": "Point",
        "coordinates": [
          -81.4746,
          31.1449
        ]
      },
      "properties": {
        "city": "Brunswick, GA",
        "state": "Georgia"
      }
    },
    {
      "type": "Feature",
      "geometry": {
        "type": "Point",
        "coordinates": [
          -84.8771,
          32.51
        ]
      },
      "properties": {
        "city": "Columbus, GA",
        "state": "Georgia"
      }
    },
    {
      "type": "Feature",
      "geometry": {
        "type": "Point",
        "coordinates": [
          -81.1821,
          32.0286
        ]
      },
      "properties": {
        "city": "Savannah, GA",
        "state": "Georgia"
      }
    },
    {
      "type": "Feature",
      "geometry": {
        "type": "Point",
        "coordinates": [
          -83.2788,
          30.8502
        ]
      },
      "properties": {
        "city": "Valdosta, GA",
        "state": "Georgia"
      }
    },
    {
      "type": "Feature",
      "geometry": {
        "type": "Point",
        "coordinates": [
          -155.0863,
          19.6883
        ]
      },
      "properties": {
        "city": "Hilo, HI",
        "state": "Hawaii"
      }
    },
    {
      "type": "Feature",
      "geometry": {
        "type": "Point",
        "coordinates": [
          -157.846,
          21.3294
        ]
      },
      "properties": {
        "city": "Honolulu, HI",
        "state": "Hawaii"
      }
    },
    {
      "type": "Feature",
      "geometry": {
        "type": "Point",
        "coordinates": [
          -156.4603,
          20.8715
        ]
      },
      "properties": {
        "city": "Kahului, HI",
        "state": "Hawaii"
      }
    },
    {
      "type": "Feature",
      "geometry": {
        "type": "Point",
        "coordinates": [
          -159.3564,
          21.9721
        ]
      },
      "properties": {
        "city": "Lihue, HI",
        "state": "Hawaii"
      }
    },
    {
      "type": "Feature",
      "geometry": {
        "type": "Point",
        "coordinates": [
          -116.2308,
          43.6005
        ]
      },
      "properties": {
        "city": "Boise, ID",
        "state": "Idaho"
      }
    },
    {
      "type": "Feature",
      "geometry": {
        "type": "Point",
        "coordinates": [
          -112.0362,
          43.4871
        ]
      },
      "properties": {
        "city": "Idaho Falls, ID",
        "state": "Idaho"
      }
    },
    {
      "type": "Feature",
      "geometry": {
        "type": "Point",
        "coordinates": [
          -116.9933,
          46.3934
        ]
      },
      "properties": {
        "city": "Lewiston, ID",
        "state": "Idaho"
      }
    },
    {
      "type": "Feature",
      "geometry": {
        "type": "Point",
        "coordinates": [
          -112.4647,
          42.8724
        ]
      },
      "properties": {
        "city": "Pocatello, ID",
        "state": "Idaho"
      }
    },
    {
      "type": "Feature",
      "geometry": {
        "type": "Point",
        "coordinates": [
          -114.4613,
          42.5645
        ]
      },
      "properties": {
        "city": "Twin Falls, ID",
        "state": "Idaho"
      }
    },
    {
      "type": "Feature",
      "geometry": {
        "type": "Point",
        "coordinates": [
          -89.99,
          38.5164
        ]
      },
      "properties": {
        "city": "Belleville, IL",
        "state": "Illinois"
      }
    },
    {
      "type": "Feature",
      "geometry": {
        "type": "Point",
        "coordinates": [
          -87.6866,
          41.8375
        ]
      },
      "properties": {
        "city": "Chicago, IL",
        "state": "Illinois"
      }
    },
    {
      "type": "Feature",
      "geometry": {
        "type": "Point",
        "coordinates": [
          -88.9342,
          39.8557
        ]
      },
      "properties": {
        "city": "Decatur, IL",
        "state": "Illinois"
      }
    },
    {
      "type": "Feature",
      "geometry": {
        "type": "Point",
        "coordinates": [
          -90.492,
          41.4821
        ]
      },
      "properties": {
        "city": "Moline, IL",
        "state": "Illinois"
      }
    },
    {
      "type": "Feature",
      "geometry": {
        "type": "Point",
        "coordinates": [
          -89.6154,
          40.752
        ]
      },
      "properties": {
        "city": "Peoria, IL",
        "state": "Illinois"
      }
    },
    {
      "type": "Feature",
      "geometry": {
        "type": "Point",
        "coordinates": [
          -89.064,
          42.2596
        ]
      },
      "properties": {
        "city": "Rockford, IL",
        "state": "Illinois"
      }
    },
    {
      "type": "Feature",
      "geometry": {
        "type": "Point",
        "coordinates": [
          -89.654,
          39.7709
        ]
      },
      "properties": {
        "city": "Springfield, IL",
        "state": "Illinois"
      }
    },
    {
      "type": "Feature",
      "geometry": {
        "type": "Point",
        "coordinates": [
          -87.5341,
          37.9881
        ]
      },
      "properties": {
        "city": "Evansville, IN",
        "state": "Indiana"
      }
    },
    {
      "type": "Feature",
      "geometry": {
        "type": "Point",
        "coordinates": [
          -85.1436,
          41.0888
        ]
      },
      "properties": {
        "city": "Fort Wayne, IN",
        "state": "Indiana"
      }
    },
    {
      "type": "Feature",
      "geometry": {
        "type": "Point",
        "coordinates": [
          -86.1458,
          39.7771
        ]
      },
      "properties": {
        "city": "Indianapolis, IN",
        "state": "Indiana"
      }
    },
    {
      "type": "Feature",
      "geometry": {
        "type": "Point",
        "coordinates": [
          -86.2696,
          41.6767
        ]
      },
      "properties": {
        "city": "South Bend, IN",
        "state": "Indiana"
      }
    },
    {
      "type": "Feature",
      "geometry": {
        "type": "Point",
        "coordinates": [
          -93.6105,
          41.5725
        ]
      },
      "properties": {
        "city": "Des Moines, IA",
        "state": "Iowa"
      }
    },
    {
      "type": "Feature",
      "geometry": {
        "type": "Point",
        "coordinates": [
          -94.1751,
          42.5098
        ]
      },
      "properties": {
        "city": "Fort Dodge, IA",
        "state": "Iowa"
      }
    },
    {
      "type": "Feature",
      "geometry": {
        "type": "Point",
        "coordinates": [
          -93.1997,
          43.1487
        ]
      },
      "properties": {
        "city": "Mason City, IA",
        "state": "Iowa"
      }
    },
    {
      "type": "Feature",
      "geometry": {
        "type": "Point",
        "coordinates": [
          -96.3901,
          42.4959
        ]
      },
      "properties": {
        "city": "Sioux City, IA",
        "state": "Iowa"
      }
    },
    {
      "type": "Feature",
      "geometry": {
        "type": "Point",
        "coordinates": [
          -100.0182,
          37.7611
        ]
      },
      "properties": {
        "city": "Dodge City, KS",
        "state": "Kansas"
      }
    },
    {
      "type": "Feature",
      "geometry": {
        "type": "Point",
        "coordinates": [
          -100.8527,
          37.9753
        ]
      },
      "properties": {
        "city": "Garden City, KS",
        "state": "Kansas"
      }
    },
    {
      "type": "Feature",
      "geometry": {
        "type": "Point",
        "coordinates": [
          -99.3221,
          38.8821
        ]
      },
      "properties": {
        "city": "Hays, KS",
        "state": "Kansas"
      }
    },
    {
      "type": "Feature",
      "geometry": {
        "type": "Point",
        "coordinates": [
          -100.9295,
          37.0466
        ]
      },
      "properties": {
        "city": "Liberal, KS",
        "state": "Kansas"
      }
    },
    {
      "type": "Feature",
      "geometry": {
        "type": "Point",
        "coordinates": [
          -97.6143,
          38.8136
        ]
      },
      "properties": {
        "city": "Salina, KS",
        "state": "Kansas"
      }
    },
    {
      "type": "Feature",
      "geometry": {
        "type": "Point",
        "coordinates": [
          -97.3443,
          37.6895
        ]
      },
      "properties": {
        "city": "Wichita, KS",
        "state": "Kansas"
      }
    },
    {
      "type": "Feature",
      "geometry": {
        "type": "Point",
        "coordinates": [
          -84.4587,
          38.0423
        ]
      },
      "properties": {
        "city": "Lexington, KY",
        "state": "Kentucky"
      }
    },
    {
      "type": "Feature",
      "geometry": {
        "type": "Point",
        "coordinates": [
          -85.6485,
          38.1663
        ]
      },
      "properties": {
        "city": "Louisville, KY",
        "state": "Kentucky"
      }
    },
    {
      "type": "Feature",
      "geometry": {
        "type": "Point",
        "coordinates": [
          -92.4702,
          31.2923
        ]
      },
      "properties": {
        "city": "Alexandria, LA",
        "state": "Louisiana"
      }
    },
    {
      "type": "Feature",
      "geometry": {
        "type": "Point",
        "coordinates": [
          -91.1311,
          30.442
        ]
      },
      "properties": {
        "city": "Baton Rouge, LA",
        "state": "Louisiana"
      }
    },
    {
      "type": "Feature",
      "geometry": {
        "type": "Point",
        "coordinates": [
          -92.0325,
          30.2082
        ]
      },
      "properties": {
        "city": "Lafayette, LA",
        "state": "Louisiana"
      }
    },
    {
      "type": "Feature",
      "geometry": {
        "type": "Point",
        "coordinates": [
          -93.2111,
          30.201
        ]
      },
      "properties": {
        "city": "Lake Charles, LA",
        "state": "Louisiana"
      }
    },
    {
      "type": "Feature",
      "geometry": {
        "type": "Point",
        "coordinates": [
          -92.0774,
          32.5185
        ]
      },
      "properties": {
        "city": "Monroe, LA",
        "state": "Louisiana"
      }
    },
    {
      "type": "Feature",
      "geometry": {
        "type": "Point",
        "coordinates": [
          -89.9288,
          30.0687
        ]
      },
      "properties": {
        "city": "New Orleans, LA",
        "state": "Louisiana"
      }
    },
    {
      "type": "Feature",
      "geometry": {
        "type": "Point",
        "coordinates": [
          -93.7955,
          32.4653
        ]
      },
      "properties": {
        "city": "Shreveport, LA",
        "state": "Louisiana"
      }
    },
    {
      "type": "Feature",
      "geometry": {
        "type": "Point",
        "coordinates": [
          -68.7906,
          44.8323
        ]
      },
      "properties": {
        "city": "Bangor, ME",
        "state": "Maine"
      }
    },
    {
      "type": "Feature",
      "geometry": {
        "type": "Point",
        "coordinates": [
          -70.2715,
          43.6773
        ]
      },
      "properties": {
        "city": "Portland, ME",
        "state": "Maine"
      }
    },
    {
      "type": "Feature",
      "geometry": {
        "type": "Point",
        "coordinates": [
          -76.6144,
          39.3051
        ]
      },
      "properties": {
        "city": "Baltimore, MD",
        "state": "Maryland"
      }
    },
    {
      "type": "Feature",
      "geometry": {
        "type": "Point",
        "coordinates": [
          -77.7217,
          39.6401
        ]
      },
      "properties": {
        "city": "Hagerstown, MD",
        "state": "Maryland"
      }
    },
    {
      "type": "Feature",
      "geometry": {
        "type": "Point",
        "coordinates": [
          -71.0852,
          42.3188
        ]
      },
      "properties": {
        "city": "Boston, MA",
        "state": "Massachusetts"
      }
    },
    {
      "type": "Feature",
      "geometry": {
        "type": "Point",
        "coordinates": [
          -71.8079,
          42.2705
        ]
      },
      "properties": {
        "city": "Worcester, MA",
        "state": "Massachusetts"
      }
    },
    {
      "type": "Feature",
      "geometry": {
        "type": "Point",
        "coordinates": [
          -83.4402,
          45.074
        ]
      },
      "properties": {
        "city": "Alpena, MI",
        "state": "Michigan"
      }
    },
    {
      "type": "Feature",
      "geometry": {
        "type": "Point",
        "coordinates": [
          -83.1024,
          42.3834
        ]
      },
      "properties": {
        "city": "Detroit, MI",
        "state": "Michigan"
      }
    },
    {
      "type": "Feature",
      "geometry": {
        "type": "Point",
        "coordinates": [
          -87.09,
          45.7477
        ]
      },
      "properties": {
        "city": "Escanaba, MI",
        "state": "Michigan"
      }
    },
    {
      "type": "Feature",
      "geometry": {
        "type": "Point",
        "coordinates": [
          -83.6921,
          43.0236
        ]
      },
      "properties": {
        "city": "Flint, MI",
        "state": "Michigan"
      }
    },
    {
      "type": "Feature",
      "geometry": {
        "type": "Point",
        "coordinates": [
          -85.6562,
          42.9619
        ]
      },
      "properties": {
        "city": "Grand Rapids, MI",
        "state": "Michigan"
      }
    },
    {
      "type": "Feature",
      "geometry": {
        "type": "Point",
        "coordinates": [
          -85.5882,
          42.2749
        ]
      },
      "properties": {
        "city": "Kalamazoo, MI",
        "state": "Michigan"
      }
    },
    {
      "type": "Feature",
      "geometry": {
        "type": "Point",
        "coordinates": [
          -84.5601,
          42.7142
        ]
      },
      "properties": {
        "city": "Lansing, MI",
        "state": "Michigan"
      }
    },
    {
      "type": "Feature",
      "geometry": {
        "type": "Point",
        "coordinates": [
          -87.4082,
          46.544
        ]
      },
      "properties": {
        "city": "Marquette, MI",
        "state": "Michigan"
      }
    },
    {
      "type": "Feature",
      "geometry": {
        "type": "Point",
        "coordinates": [
          -84.783,
          45.5519
        ]
      },
      "properties": {
        "city": "Pellston, MI",
        "state": "Michigan"
      }
    },
    {
      "type": "Feature",
      "geometry": {
        "type": "Point",
        "coordinates": [
          -84.3723,
          46.4817
        ]
      },
      "properties": {
        "city": "Sault Ste. Marie, MI",
        "state": "Michigan"
      }
    },
    {
      "type": "Feature",
      "geometry": {
        "type": "Point",
        "coordinates": [
          -85.6038,
          44.7546
        ]
      },
      "properties": {
        "city": "Traverse City, MI",
        "state": "Michigan"
      }
    },
    {
      "type": "Feature",
      "geometry": {
        "type": "Point",
        "coordinates": [
          -94.8797,
          47.4828
        ]
      },
      "properties": {
        "city": "Bemidji, MN",
        "state": "Minnesota"
      }
    },
    {
      "type": "Feature",
      "geometry": {
        "type": "Point",
        "coordinates": [
          -94.1983,
          46.3553
        ]
      },
      "properties": {
        "city": "Brainerd, MN",
        "state": "Minnesota"
      }
    },
    {
      "type": "Feature",
      "geometry": {
        "type": "Point",
        "coordinates": [
          -92.1393,
          46.7756
        ]
      },
      "properties": {
        "city": "Duluth, MN",
        "state": "Minnesota"
      }
    },
    {
      "type": "Feature",
      "geometry": {
        "type": "Point",
        "coordinates": [
          -92.9486,
          47.398
        ]
      },
      "properties": {
        "city": "Hibbing, MN",
        "state": "Minnesota"
      }
    },
    {
      "type": "Feature",
      "geometry": {
        "type": "Point",
        "coordinates": [
          -93.4084,
          48.5884
        ]
      },
      "properties": {
        "city": "International Falls, MN",
        "state": "Minnesota"
      }
    },
    {
      "type": "Feature",
      "geometry": {
        "type": "Point",
        "coordinates": [
          -93.2678,
          44.9635
        ]
      },
      "properties": {
        "city": "Minneapolis, MN",
        "state": "Minnesota"
      }
    },
    {
      "type": "Feature",
      "geometry": {
        "type": "Point",
        "coordinates": [
          -92.478,
          44.0154
        ]
      },
      "properties": {
        "city": "Rochester, MN",
        "state": "Minnesota"
      }
    },
    {
      "type": "Feature",
      "geometry": {
        "type": "Point",
        "coordinates": [
          -94.1718,
          45.534
        ]
      },
      "properties": {
        "city": "St. Cloud, MN",
        "state": "Minnesota"
      }
    },
    {
      "type": "Feature",
      "geometry": {
        "type": "Point",
        "coordinates": [
          -88.4096,
          33.5088
        ]
      },
      "properties": {
        "city": "Columbus, MS",
        "state": "Mississippi"
      }
    },
    {
      "type": "Feature",
      "geometry": {
        "type": "Point",
        "coordinates": [
          -88.6896,
          32.3846
        ]
      },
      "properties": {
        "city": "Meridian, MS",
        "state": "Mississippi"
      }
    },
    {
      "type": "Feature",
      "geometry": {
        "type": "Point",
        "coordinates": [
          -92.3268,
          38.9472
        ]
      },
      "properties": {
        "city": "Columbia, MO",
        "state": "Missouri"
      }
    },
    {
      "type": "Feature",
      "geometry": {
        "type": "Point",
        "coordinates": [
          -94.5018,
          37.0757
        ]
      },
      "properties": {
        "city": "Joplin, MO",
        "state": "Missouri"
      }
    },
    {
      "type": "Feature",
      "geometry": {
        "type": "Point",
        "coordinates": [
          -94.5541,
          39.1238
        ]
      },
      "properties": {
        "city": "Kansas City, MO",
        "state": "Missouri"
      }
    },
    {
      "type": "Feature",
      "geometry": {
        "type": "Point",
        "coordinates": [
          -93.2916,
          37.1943
        ]
      },
      "properties": {
        "city": "Springfield, MO",
        "state": "Missouri"
      }
    },
    {
      "type": "Feature",
      "geometry": {
        "type": "Point",
        "coordinates": [
          -90.2451,
          38.6359
        ]
      },
      "properties": {
        "city": "St. Louis, MO",
        "state": "Missouri"
      }
    },
    {
      "type": "Feature",
      "geometry": {
        "type": "Point",
        "coordinates": [
          -108.5526,
          45.7891
        ]
      },
      "properties": {
        "city": "Billings, MT",
        "state": "Montana"
      }
    },
    {
      "type": "Feature",
      "geometry": {
        "type": "Point",
        "coordinates": [
          -111.0558,
          45.6833
        ]
      },
      "properties": {
        "city": "Bozeman, MT",
        "state": "Montana"
      }
    },
    {
      "type": "Feature",
      "geometry": {
        "type": "Point",
        "coordinates": [
          -112.6571,
          45.902
        ]
      },
      "properties": {
        "city": "Butte, MT",
        "state": "Montana"
      }
    },
    {
      "type": "Feature",
      "geometry": {
        "type": "Point",
        "coordinates": [
          -111.2996,
          47.5022
        ]
      },
      "properties": {
        "city": "Great Falls, MT",
        "state": "Montana"
      }
    },
    {
      "type": "Feature",
      "geometry": {
        "type": "Point",
        "coordinates": [
          -112.0202,
          46.5965
        ]
      },
      "properties": {
        "city": "Helena, MT",
        "state": "Montana"
      }
    },
    {
      "type": "Feature",
      "geometry": {
        "type": "Point",
        "coordinates": [
          -114.3274,
          48.2153
        ]
      },
      "properties": {
        "city": "Kalispell, MT",
        "state": "Montana"
      }
    },
    {
      "type": "Feature",
      "geometry": {
        "type": "Point",
        "coordinates": [
          -114.0214,
          46.8751
        ]
      },
      "properties": {
        "city": "Missoula, MT",
        "state": "Montana"
      }
    },
    {
      "type": "Feature",
      "geometry": {
        "type": "Point",
        "coordinates": [
          -111.1057,
          44.6627
        ]
      },
      "properties": {
        "city": "West Yellowstone, MT",
        "state": "Montana"
      }
    },
    {
      "type": "Feature",
      "geometry": {
        "type": "Point",
        "coordinates": [
          -98.3586,
          40.9218
        ]
      },
      "properties": {
        "city": "Grand Island, NE",
        "state": "Nebraska"
      }
    },
    {
      "type": "Feature",
      "geometry": {
        "type": "Point",
        "coordinates": [
          -99.0833,
          40.7011
        ]
      },
      "properties": {
        "city": "Kearney, NE",
        "state": "Nebraska"
      }
    },
    {
      "type": "Feature",
      "geometry": {
        "type": "Point",
        "coordinates": [
          -96.6784,
          40.8099
        ]
      },
      "properties": {
        "city": "Lincoln, NE",
        "state": "Nebraska"
      }
    },
    {
      "type": "Feature",
      "geometry": {
        "type": "Point",
        "coordinates": [
          -100.7641,
          41.1263
        ]
      },
      "properties": {
        "city": "North Platte, NE",
        "state": "Nebraska"
      }
    },
    {
      "type": "Feature",
      "geometry": {
        "type": "Point",
        "coordinates": [
          -96.0529,
          41.2627
        ]
      },
      "properties": {
        "city": "Omaha, NE",
        "state": "Nebraska"
      }
    },
    {
      "type": "Feature",
      "geometry": {
        "type": "Point",
        "coordinates": [
          -103.6616,
          41.8684
        ]
      },
      "properties": {
        "city": "Scottsbluff, NE",
        "state": "Nebraska"
      }
    },
    {
      "type": "Feature",
      "geometry": {
        "type": "Point",
        "coordinates": [
          -115.7678,
          40.8381
        ]
      },
      "properties": {
        "city": "Elko, NV",
        "state": "Nevada"
      }
    },
    {
      "type": "Feature",
      "geometry": {
        "type": "Point",
        "coordinates": [
          -115.2654,
          36.2333
        ]
      },
      "properties": {
        "city": "Las Vegas, NV",
        "state": "Nevada"
      }
    },
    {
      "type": "Feature",
      "geometry": {
        "type": "Point",
        "coordinates": [
          -119.8483,
          39.5497
        ]
      },
      "properties": {
        "city": "Reno, NV",
        "state": "Nevada"
      }
    },
    {
      "type": "Feature",
      "geometry": {
        "type": "Point",
        "coordinates": [
          -71.4447,
          42.9848
        ]
      },
      "properties": {
        "city": "Manchester, NH",
        "state": "New Hampshire"
      }
    },
    {
      "type": "Feature",
      "geometry": {
        "type": "Point",
        "coordinates": [
          -70.7826,
          43.058
        ]
      },
      "properties": {
        "city": "Portsmouth, NH",
        "state": "New Hampshire"
      }
    },
    {
      "type": "Feature",
      "geometry": {
        "type": "Point",
        "coordinates": [
          -74.4527,
          39.3797
        ]
      },
      "properties": {
        "city": "Atlantic City, NJ",
        "state": "New Jersey"
      }
    },
    {
      "type": "Feature",
      "geometry": {
        "type": "Point",
        "coordinates": [
          -74.1725,
          40.7245
        ]
      },
      "properties": {
        "city": "Newark, NJ",
        "state": "New Jersey"
      }
    },
    {
      "type": "Feature",
      "geometry": {
        "type": "Point",
        "coordinates": [
          -74.7641,
          40.2237
        ]
      },
      "properties": {
        "city": "Trenton, NJ",
        "state": "New Jersey"
      }
    },
    {
      "type": "Feature",
      "geometry": {
        "type": "Point",
        "coordinates": [
          -106.6465,
          35.1054
        ]
      },
      "properties": {
        "city": "Albuquerque, NM",
        "state": "New Mexico"
      }
    },
    {
      "type": "Feature",
      "geometry": {
        "type": "Point",
        "coordinates": [
          -103.16,
          32.7281
        ]
      },
      "properties": {
        "city": "Hobbs, NM",
        "state": "New Mexico"
      }
    },
    {
      "type": "Feature",
      "geometry": {
        "type": "Point",
        "coordinates": [
          -104.5294,
          33.373
        ]
      },
      "properties": {
        "city": "Roswell, NM",
        "state": "New Mexico"
      }
    },
    {
      "type": "Feature",
      "geometry": {
        "type": "Point",
        "coordinates": [
          -105.9819,
          35.6619
        ]
      },
      "properties": {
        "city": "Santa Fe, NM",
        "state": "New Mexico"
      }
    },
    {
      "type": "Feature",
      "geometry": {
        "type": "Point",
        "coordinates": [
          -73.7987,
          42.6664
        ]
      },
      "properties": {
        "city": "Albany, NY",
        "state": "New York"
      }
    },
    {
      "type": "Feature",
      "geometry": {
        "type": "Point",
        "coordinates": [
          -75.9093,
          42.1014
        ]
      },
      "properties": {
        "city": "Binghamton, NY",
        "state": "New York"
      }
    },
    {
      "type": "Feature",
      "geometry": {
        "type": "Point",
        "coordinates": [
          -78.8487,
          42.9018
        ]
      },
      "properties": {
        "city": "Buffalo, NY",
        "state": "New York"
      }
    },
    {
      "type": "Feature",
      "geometry": {
        "type": "Point",
        "coordinates": [
          -73.9249,
          40.6943
        ]
      },
      "properties": {
        "city": "New York, NY",
        "state": "New York"
      }
    },
    {
      "type": "Feature",
      "geometry": {
        "type": "Point",
        "coordinates": [
          -79.0147,
          43.0921
        ]
      },
      "properties": {
        "city": "Niagara Falls, NY",
        "state": "New York"
      }
    },
    {
      "type": "Feature",
      "geometry": {
        "type": "Point",
        "coordinates": [
          -73.4563,
          44.6951
        ]
      },
      "properties": {
        "city": "Plattsburgh, NY",
        "state": "New York"
      }
    },
    {
      "type": "Feature",
      "geometry": {
        "type": "Point",
        "coordinates": [
          -77.6162,
          43.168
        ]
      },
      "properties": {
        "city": "Rochester, NY",
        "state": "New York"
      }
    },
    {
      "type": "Feature",
      "geometry": {
        "type": "Point",
        "coordinates": [
          -76.1437,
          43.0407
        ]
      },
      "properties": {
        "city": "Syracuse, NY",
        "state": "New York"
      }
    },
    {
      "type": "Feature",
      "geometry": {
        "type": "Point",
        "coordinates": [
          -73.7547,
          41.022
        ]
      },
      "properties": {
        "city": "White Plains, NY",
        "state": "New York"
      }
    },
    {
      "type": "Feature",
      "geometry": {
        "type": "Point",
        "coordinates": [
          -82.5537,
          35.5707
        ]
      },
      "properties": {
        "city": "Asheville, NC",
        "state": "North Carolina"
      }
    },
    {
      "type": "Feature",
      "geometry": {
        "type": "Point",
        "coordinates": [
          -80.8303,
          35.2083
        ]
      },
      "properties": {
        "city": "Charlotte, NC",
        "state": "North Carolina"
      }
    },
    {
      "type": "Feature",
      "geometry": {
        "type": "Point",
        "coordinates": [
          -80.6369,
          35.3933
        ]
      },
      "properties": {
        "city": "Concord, NC",
        "state": "North Carolina"
      }
    },
    {
      "type": "Feature",
      "geometry": {
        "type": "Point",
        "coordinates": [
          -78.9772,
          35.085
        ]
      },
      "properties": {
        "city": "Fayetteville, NC",
        "state": "North Carolina"
      }
    },
    {
      "type": "Feature",
      "geometry": {
        "type": "Point",
        "coordinates": [
          -77.8866,
          34.2099
        ]
      },
      "properties": {
        "city": "Wilmington, NC",
        "state": "North Carolina"
      }
    },
    {
      "type": "Feature",
      "geometry": {
        "type": "Point",
        "coordinates": [
          -102.7925,
          46.8918
        ]
      },
      "properties": {
        "city": "Dickinson, ND",
        "state": "North Dakota"
      }
    },
    {
      "type": "Feature",
      "geometry": {
        "type": "Point",
        "coordinates": [
          -96.8292,
          46.8651
        ]
      },
      "properties": {
        "city": "Fargo, ND",
        "state": "North Dakota"
      }
    },
    {
      "type": "Feature",
      "geometry": {
        "type": "Point",
        "coordinates": [
          -97.0884,
          47.9214
        ]
      },
      "properties": {
        "city": "Grand Forks, ND",
        "state": "North Dakota"
      }
    },
    {
      "type": "Feature",
      "geometry": {
        "type": "Point",
        "coordinates": [
          -98.6937,
          46.9063
        ]
      },
      "properties": {
        "city": "Jamestown, ND",
        "state": "North Dakota"
      }
    },
    {
      "type": "Feature",
      "geometry": {
        "type": "Point",
        "coordinates": [
          -101.278,
          48.2375
        ]
      },
      "properties": {
        "city": "Minot, ND",
        "state": "North Dakota"
      }
    },
    {
      "type": "Feature",
      "geometry": {
        "type": "Point",
        "coordinates": [
          -103.6364,
          48.1814
        ]
      },
      "properties": {
        "city": "Williston, ND",
        "state": "North Dakota"
      }
    },
    {
      "type": "Feature",
      "geometry": {
        "type": "Point",
        "coordinates": [
          -81.5219,
          41.0798
        ]
      },
      "properties": {
        "city": "Akron, OH",
        "state": "Ohio"
      }
    },
    {
      "type": "Feature",
      "geometry": {
        "type": "Point",
        "coordinates": [
          -81.6805,
          41.4764
        ]
      },
      "properties": {
        "city": "Cleveland, OH",
        "state": "Ohio"
      }
    },
    {
      "type": "Feature",
      "geometry": {
        "type": "Point",
        "coordinates": [
          -82.9855,
          39.9862
        ]
      },
      "properties": {
        "city": "Columbus, OH",
        "state": "Ohio"
      }
    },
    {
      "type": "Feature",
      "geometry": {
        "type": "Point",
        "coordinates": [
          -84.2003,
          39.7805
        ]
      },
      "properties": {
        "city": "Dayton, OH",
        "state": "Ohio"
      }
    },
    {
      "type": "Feature",
      "geometry": {
        "type": "Point",
        "coordinates": [
          -83.5827,
          41.6638
        ]
      },
      "properties": {
        "city": "Toledo, OH",
        "state": "Ohio"
      }
    },
    {
      "type": "Feature",
      "geometry": {
        "type": "Point",
        "coordinates": [
          -97.5136,
          35.4676
        ]
      },
      "properties": {
        "city": "Oklahoma City, OK",
        "state": "Oklahoma"
      }
    },
    {
      "type": "Feature",
      "geometry": {
        "type": "Point",
        "coordinates": [
          -97.0742,
          36.1317
        ]
      },
      "properties": {
        "city": "Stillwater, OK",
        "state": "Oklahoma"
      }
    },
    {
      "type": "Feature",
      "geometry": {
        "type": "Point",
        "coordinates": [
          -95.9042,
          36.1283
        ]
      },
      "properties": {
        "city": "Tulsa, OK",
        "state": "Oklahoma"
      }
    },
    {
      "type": "Feature",
      "geometry": {
        "type": "Point",
        "coordinates": [
          -123.1174,
          44.0564
        ]
      },
      "properties": {
        "city": "Eugene, OR",
        "state": "Oregon"
      }
    },
    {
      "type": "Feature",
      "geometry": {
        "type": "Point",
        "coordinates": [
          -122.854,
          42.3372
        ]
      },
      "properties": {
        "city": "Medford, OR",
        "state": "Oregon"
      }
    },
    {
      "type": "Feature",
      "geometry": {
        "type": "Point",
        "coordinates": [
          -122.65,
          45.5371
        ]
      },
      "properties": {
        "city": "Portland, OR",
        "state": "Oregon"
      }
    },
    {
      "type": "Feature",
      "geometry": {
        "type": "Point",
        "coordinates": [
          -76.8843,
          40.2752
        ]
      },
      "properties": {
        "city": "Harrisburg, PA",
        "state": "Pennsylvania"
      }
    },
    {
      "type": "Feature",
      "geometry": {
        "type": "Point",
        "coordinates": [
          -78.9194,
          40.326
        ]
      },
      "properties": {
        "city": "Johnstown, PA",
        "state": "Pennsylvania"
      }
    },
    {
      "type": "Feature",
      "geometry": {
        "type": "Point",
        "coordinates": [
          -79.3825,
          40.3125
        ]
      },
      "properties": {
        "city": "Latrobe, PA",
        "state": "Pennsylvania"
      }
    },
    {
      "type": "Feature",
      "geometry": {
        "type": "Point",
        "coordinates": [
          -75.1339,
          40.0077
        ]
      },
      "properties": {
        "city": "Philadelphia, PA",
        "state": "Pennsylvania"
      }
    },
    {
      "type": "Feature",
      "geometry": {
        "type": "Point",
        "coordinates": [
          -79.9763,
          40.4397
        ]
      },
      "properties": {
        "city": "Pittsburgh, PA",
        "state": "Pennsylvania"
      }
    },
    {
      "type": "Feature",
      "geometry": {
        "type": "Point",
        "coordinates": [
          -77.8567,
          40.7909
        ]
      },
      "properties": {
        "city": "State College, PA",
        "state": "Pennsylvania"
      }
    },
    {
      "type": "Feature",
      "geometry": {
        "type": "Point",
        "coordinates": [
          -67.1537,
          18.4382
        ]
      },
      "properties": {
        "city": "Aguadilla, PR",
        "state": "Puerto Rico"
      }
    },
    {
      "type": "Feature",
      "geometry": {
        "type": "Point",
        "coordinates": [
          -66.6212,
          18.0127
        ]
      },
      "properties": {
        "city": "Ponce, PR",
        "state": "Puerto Rico"
      }
    },
    {
      "type": "Feature",
      "geometry": {
        "type": "Point",
        "coordinates": [
          -66.061,
          18.3985
        ]
      },
      "properties": {
        "city": "San Juan, PR",
        "state": "Puerto Rico"
      }
    },
    {
      "type": "Feature",
      "geometry": {
        "type": "Point",
        "coordinates": [
          -71.4187,
          41.823
        ]
      },
      "properties": {
        "city": "Providence, RI",
        "state": "Rhode Island"
      }
    },
    {
      "type": "Feature",
      "geometry": {
        "type": "Point",
        "coordinates": [
          -79.9687,
          32.8168
        ]
      },
      "properties": {
        "city": "Charleston, SC",
        "state": "South Carolina"
      }
    },
    {
      "type": "Feature",
      "geometry": {
        "type": "Point",
        "coordinates": [
          -80.9036,
          34.0378
        ]
      },
      "properties": {
        "city": "Columbia, SC",
        "state": "South Carolina"
      }
    },
    {
      "type": "Feature",
      "geometry": {
        "type": "Point",
        "coordinates": [
          -82.2313,
          34.933
        ]
      },
      "properties": {
        "city": "Greer, SC",
        "state": "South Carolina"
      }
    },
    {
      "type": "Feature",
      "geometry": {
        "type": "Point",
        "coordinates": [
          -78.8844,
          33.7094
        ]
      },
      "properties": {
        "city": "Myrtle Beach, SC",
        "state": "South Carolina"
      }
    },
    {
      "type": "Feature",
      "geometry": {
        "type": "Point",
        "coordinates": [
          -98.4686,
          45.4649
        ]
      },
      "properties": {
        "city": "Aberdeen, SD",
        "state": "South Dakota"
      }
    },
    {
      "type": "Feature",
      "geometry": {
        "type": "Point",
        "coordinates": [
          -103.2204,
          44.0716
        ]
      },
      "properties": {
        "city": "Rapid City, SD",
        "state": "South Dakota"
      }
    },
    {
      "type": "Feature",
      "geometry": {
        "type": "Point",
        "coordinates": [
          -96.7311,
          43.5396
        ]
      },
      "properties": {
        "city": "Sioux Falls, SD",
        "state": "South Dakota"
      }
    },
    {
      "type": "Feature",
      "geometry": {
        "type": "Point",
        "coordinates": [
          -85.2481,
          35.066
        ]
      },
      "properties": {
        "city": "Chattanooga, TN",
        "state": "Tennessee"
      }
    },
    {
      "type": "Feature",
      "geometry": {
        "type": "Point",
        "coordinates": [
          -83.9496,
          35.9692
        ]
      },
      "properties": {
        "city": "Knoxville, TN",
        "state": "Tennessee"
      }
    },
    {
      "type": "Feature",
      "geometry": {
        "type": "Point",
        "coordinates": [
          -89.9663,
          35.1087
        ]
      },
      "properties": {
        "city": "Memphis, TN",
        "state": "Tennessee"
      }
    },
    {
      "type": "Feature",
      "geometry": {
        "type": "Point",
        "coordinates": [
          -86.7842,
          36.1715
        ]
      },
      "properties": {
        "city": "Nashville, TN",
        "state": "Tennessee"
      }
    },
    {
      "type": "Feature",
      "geometry": {
        "type": "Point",
        "coordinates": [
          -99.7384,
          32.4543
        ]
      },
      "properties": {
        "city": "Abilene, TX",
        "state": "Texas"
      }
    },
    {
      "type": "Feature",
      "geometry": {
        "type": "Point",
        "coordinates": [
          -101.8316,
          35.1984
        ]
      },
      "properties": {
        "city": "Amarillo, TX",
        "state": "Texas"
      }
    },
    {
      "type": "Feature",
      "geometry": {
        "type": "Point",
        "coordinates": [
          -97.7522,
          30.3005
        ]
      },
      "properties": {
        "city": "Austin, TX",
        "state": "Texas"
      }
    },
    {
      "type": "Feature",
      "geometry": {
        "type": "Point",
        "coordinates": [
          -97.458,
          25.9975
        ]
      },
      "properties": {
        "city": "Brownsville, TX",
        "state": "Texas"
      }
    },
    {
      "type": "Feature",
      "geometry": {
        "type": "Point",
        "coordinates": [
          -97.3767,
          27.7254
        ]
      },
      "properties": {
        "city": "Corpus Christi, TX",
        "state": "Texas"
      }
    },
    {
      "type": "Feature",
      "geometry": {
        "type": "Point",
        "coordinates": [
          -96.7667,
          32.7935
        ]
      },
      "properties": {
        "city": "Dallas, TX",
        "state": "Texas"
      }
    },
    {
      "type": "Feature",
      "geometry": {
        "type": "Point",
        "coordinates": [
          -106.43,
          31.8476
        ]
      },
      "properties": {
        "city": "El Paso, TX",
        "state": "Texas"
      }
    },
    {
      "type": "Feature",
      "geometry": {
        "type": "Point",
        "coordinates": [
          -95.3885,
          29.786
        ]
      },
      "properties": {
        "city": "Houston, TX",
        "state": "Texas"
      }
    },
    {
      "type": "Feature",
      "geometry": {
        "type": "Point",
        "coordinates": [
          -97.7297,
          31.0753
        ]
      },
      "properties": {
        "city": "Killeen, TX",
        "state": "Texas"
      }
    },
    {
      "type": "Feature",
      "geometry": {
        "type": "Point",
        "coordinates": [
          -99.4874,
          27.5625
        ]
      },
      "properties": {
        "city": "Laredo, TX",
        "state": "Texas"
      }
    },
    {
      "type": "Feature",
      "geometry": {
        "type": "Point",
        "coordinates": [
          -94.7622,
          32.5193
        ]
      },
      "properties": {
        "city": "Longview, TX",
        "state": "Texas"
      }
    },
    {
      "type": "Feature",
      "geometry": {
        "type": "Point",
        "coordinates": [
          -101.8879,
          33.5657
        ]
      },
      "properties": {
        "city": "Lubbock, TX",
        "state": "Texas"
      }
    },
    {
      "type": "Feature",
      "geometry": {
        "type": "Point",
        "coordinates": [
          -100.4504,
          31.4424
        ]
      },
      "properties": {
        "city": "San Angelo, TX",
        "state": "Texas"
      }
    },
    {
      "type": "Feature",
      "geometry": {
        "type": "Point",
        "coordinates": [
          -98.5238,
          29.4632
        ]
      },
      "properties": {
        "city": "San Antonio, TX",
        "state": "Texas"
      }
    },
    {
      "type": "Feature",
      "geometry": {
        "type": "Point",
        "coordinates": [
          -95.3062,
          32.3184
        ]
      },
      "properties": {
        "city": "Tyler, TX",
        "state": "Texas"
      }
    },
    {
      "type": "Feature",
      "geometry": {
        "type": "Point",
        "coordinates": [
          -96.9849,
          28.8287
        ]
      },
      "properties": {
        "city": "Victoria, TX",
        "state": "Texas"
      }
    },
    {
      "type": "Feature",
      "geometry": {
        "type": "Point",
        "coordinates": [
          -97.1882,
          31.5599
        ]
      },
      "properties": {
        "city": "Waco, TX",
        "state": "Texas"
      }
    },
    {
      "type": "Feature",
      "geometry": {
        "type": "Point",
        "coordinates": [
          -98.5291,
          33.9072
        ]
      },
      "properties": {
        "city": "Wichita Falls, TX",
        "state": "Texas"
      }
    },
    {
      "type": "Feature",
      "geometry": {
        "type": "Point",
        "coordinates": [
          -113.0956,
          37.6834
        ]
      },
      "properties": {
        "city": "Cedar City, UT",
        "state": "Utah"
      }
    },
    {
      "type": "Feature",
      "geometry": {
        "type": "Point",
        "coordinates": [
          -109.5478,
          38.5701
        ]
      },
      "properties": {
        "city": "Moab, UT",
        "state": "Utah"
      }
    },
    {
      "type": "Feature",
      "geometry": {
        "type": "Point",
        "coordinates": [
          -111.6457,
          40.2457
        ]
      },
      "properties": {
        "city": "Provo, UT",
        "state": "Utah"
      }
    },
    {
      "type": "Feature",
      "geometry": {
        "type": "Point",
        "coordinates": [
          -111.9311,
          40.7776
        ]
      },
      "properties": {
        "city": "Salt Lake City, UT",
        "state": "Utah"
      }
    },
    {
      "type": "Feature",
      "geometry": {
        "type": "Point",
        "coordinates": [
          -113.5752,
          37.0758
        ]
      },
      "properties": {
        "city": "St. George, UT",
        "state": "Utah"
      }
    },
    {
      "type": "Feature",
      "geometry": {
        "type": "Point",
        "coordinates": [
          -109.5378,
          40.4517
        ]
      },
      "properties": {
        "city": "Vernal, UT",
        "state": "Utah"
      }
    },
    {
      "type": "Feature",
      "geometry": {
        "type": "Point",
        "coordinates": [
          -73.2316,
          44.4876
        ]
      },
      "properties": {
        "city": "Burlington, VT",
        "state": "Vermont"
      }
    },
    {
      "type": "Feature",
      "geometry": {
        "type": "Point",
        "coordinates": [
          -78.4855,
          38.0375
        ]
      },
      "properties": {
        "city": "Charlottesville, VA",
        "state": "Virginia"
      }
    },
    {
      "type": "Feature",
      "geometry": {
        "type": "Point",
        "coordinates": [
          -76.259,
          36.8945
        ]
      },
      "properties": {
        "city": "Norfolk, VA",
        "state": "Virginia"
      }
    },
    {
      "type": "Feature",
      "geometry": {
        "type": "Point",
        "coordinates": [
          -77.4756,
          37.5295
        ]
      },
      "properties": {
        "city": "Richmond, VA",
        "state": "Virginia"
      }
    },
    {
      "type": "Feature",
      "geometry": {
        "type": "Point",
        "coordinates": [
          -79.9581,
          37.2785
        ]
      },
      "properties": {
        "city": "Roanoke, VA",
        "state": "Virginia"
      }
    },
    {
      "type": "Feature",
      "geometry": {
        "type": "Point",
        "coordinates": [
          -78.1598,
          38.7122
        ]
      },
      "properties": {
        "city": "Washington, DC",
        "state": "Virginia"
      }
    },
    {
      "type": "Feature",
      "geometry": {
        "type": "Point",
        "coordinates": [
          -122.469,
          48.7548
        ]
      },
      "properties": {
        "city": "Bellingham, WA",
        "state": "Washington"
      }
    },
    {
      "type": "Feature",
      "geometry": {
        "type": "Point",
        "coordinates": [
          -122.1669,
          47.9525
        ]
      },
      "properties": {
        "city": "Everett, WA",
        "state": "Washington"
      }
    },
    {
      "type": "Feature",
      "geometry": {
        "type": "Point",
        "coordinates": [
          -122.3244,
          47.6211
        ]
      },
      "properties": {
        "city": "Seattle, WA",
        "state": "Washington"
      }
    },
    {
      "type": "Feature",
      "geometry": {
        "type": "Point",
        "coordinates": [
          -117.433,
          47.6671
        ]
      },
      "properties": {
        "city": "Spokane, WA",
        "state": "Washington"
      }
    },
    {
      "type": "Feature",
      "geometry": {
        "type": "Point",
        "coordinates": [
          -118.3368,
          46.0671
        ]
      },
      "properties": {
        "city": "Walla Walla, WA",
        "state": "Washington"
      }
    },
    {
      "type": "Feature",
      "geometry": {
        "type": "Point",
        "coordinates": [
          -79.9464,
          39.6383
        ]
      },
      "properties": {
        "city": "Morgantown, WV",
        "state": "West Virginia"
      }
    },
    {
      "type": "Feature",
      "geometry": {
        "type": "Point",
        "coordinates": [
          -88.3892,
          44.278
        ]
      },
      "properties": {
        "city": "Appleton, WI",
        "state": "Wisconsin"
      }
    },
    {
      "type": "Feature",
      "geometry": {
        "type": "Point",
        "coordinates": [
          -91.4948,
          44.8197
        ]
      },
      "properties": {
        "city": "Eau Claire, WI",
        "state": "Wisconsin"
      }
    },
    {
      "type": "Feature",
      "geometry": {
        "type": "Point",
        "coordinates": [
          -87.9895,
          44.5148
        ]
      },
      "properties": {
        "city": "Green Bay, WI",
        "state": "Wisconsin"
      }
    },
    {
      "type": "Feature",
      "geometry": {
        "type": "Point",
        "coordinates": [
          -91.2268,
          43.8241
        ]
      },
      "properties": {
        "city": "La Crosse, WI",
        "state": "Wisconsin"
      }
    },
    {
      "type": "Feature",
      "geometry": {
        "type": "Point",
        "coordinates": [
          -89.393,
          43.0822
        ]
      },
      "properties": {
        "city": "Madison, WI",
        "state": "Wisconsin"
      }
    },
    {
      "type": "Feature",
      "geometry": {
        "type": "Point",
        "coordinates": [
          -87.9675,
          43.0642
        ]
      },
      "properties": {
        "city": "Milwaukee, WI",
        "state": "Wisconsin"
      }
    },
    {
      "type": "Feature",
      "geometry": {
        "type": "Point",
        "coordinates": [
          -89.6839,
          44.7874
        ]
      },
      "properties": {
        "city": "Mosinee, WI",
        "state": "Wisconsin"
      }
    },
    {
      "type": "Feature",
      "geometry": {
        "type": "Point",
        "coordinates": [
          -89.4261,
          45.6358
        ]
      },
      "properties": {
        "city": "Rhinelander, WI",
        "state": "Wisconsin"
      }
    },
    {
      "type": "Feature",
      "geometry": {
        "type": "Point",
        "coordinates": [
          -106.3208,
          42.842
        ]
      },
      "properties": {
        "city": "Casper, WY",
        "state": "Wyoming"
      }
    },
    {
      "type": "Feature",
      "geometry": {
        "type": "Point",
        "coordinates": [
          -104.7902,
          41.135
        ]
      },
      "properties": {
        "city": "Cheyenne, WY",
        "state": "Wyoming"
      }
    },
    {
      "type": "Feature",
      "geometry": {
        "type": "Point",
        "coordinates": [
          -109.0548,
          44.5213
        ]
      },
      "properties": {
        "city": "Cody, WY",
        "state": "Wyoming"
      }
    },
    {
      "type": "Feature",
      "geometry": {
        "type": "Point",
        "coordinates": [
          -105.4982,
          44.2752
        ]
      },
      "properties": {
        "city": "Gillette, WY",
        "state": "Wyoming"
      }
    },
    {
      "type": "Feature",
      "geometry": {
        "type": "Point",
        "coordinates": [
          -110.7746,
          43.472
        ]
      },
      "properties": {
        "city": "Jackson, WY",
        "state": "Wyoming"
      }
    },
    {
      "type": "Feature",
      "geometry": {
        "type": "Point",
        "coordinates": [
          -105.6085,
          41.3099
        ]
      },
      "properties": {
        "city": "Laramie, WY",
        "state": "Wyoming"
      }
    },
    {
      "type": "Feature",
      "geometry": {
        "type": "Point",
        "coordinates": [
          -109.2209,
          41.5947
        ]
      },
      "properties": {
        "city": "Rock Springs, WY",
        "state": "Wyoming"
      }
    },
    {
      "type": "Feature",
      "geometry": {
        "type": "Point",
        "coordinates": [
          -106.9642,
          44.7961
        ]
      },
      "properties": {
        "city": "Sheridan, WY",
        "state": "Wyoming"
      }
    }
  ]
}